OBJECT_NAME,OBJECT_ID,EPOCH,MEAN_MOTION,ECCENTRICITY,INCLINATION,RA_OF_ASC_NODE,ARG_OF_PERICENTER,MEAN_ANOMALY,EPHEMERIS_TYPE,CLASSIFICATION_TYPE,NORAD_CAT_ID,ELEMENT_SET_NO,REV_AT_EPOCH,BSTAR,MEAN_MOTION_DOT,MEAN_MOTION_DDOT
ASNARO-2,2018-007A,2026-05-16T10:33:09.926208,15.22430625,.00017504,97.3980,143.8607,93.2933,266.8503,0,U,43152,999,46258,.33245836E-3,.762E-4,0
JILIN-1 07,2018-008E,2026-05-16T11:09:02.456064,15.34163190,.00090158,97.1786,157.2500,159.5502,200.6105,0,U,43159,999,46013,.20792941E-3,.6806E-4,0
JILIN-1 08,2018-008F,2026-05-16T12:15:28.412928,15.33278319,.00063791,97.1815,156.6419,169.1486,190.9896,0,U,43160,999,46009,.21039006E-3,.6693E-4,0
LEMUR-2-KADI,2018-014E,2026-05-16T12:45:59.699808,15.86872684,.00051792,97.4491,66.0530,107.4451,252.7387,0,U,43184,999,45605,.14004109E-2,.372149E-2,0
S-NET D,2018-014G,2026-05-16T06:17:37.011552,15.16350213,.00097666,97.5392,41.2564,122.5928,237.6249,0,U,43186,999,45392,.19007362E-3,.3623E-4,0
S-NET B,2018-014H,2026-05-16T12:53:19.357440,15.16321748,.00105184,97.5396,41.5150,118.0548,242.1749,0,U,43187,999,45396,.19396767E-3,.3696E-4,0
S-NET C,2018-014K,2026-05-16T11:23:37.997376,15.16312346,.00118743,97.5423,41.7259,113.1542,247.0943,0,U,43189,999,45250,.19622189E-3,.374E-4,0
PAZ,2018-020A,2026-05-16T14:55:37.159968,15.19158357,.00017234,97.4457,144.4562,87.6311,272.5121,0,U,43215,999,45621,.57963354E-4,.1151E-4,0
GOES 17,2018-022A,2026-05-16T13:59:08.505312,1.00270617,.00004484,0.8578,86.1298,322.2958,306.1715,0,U,43226,999,3010,0,-.172E-5,0
LKW-4,2018-025A,2026-05-16T09:51:50.012928,15.59727518,.00030101,97.6324,304.8646,75.0722,285.0867,0,U,43236,999,45507,.4682817E-3,.37439E-3,0
ZHUHAI-1 OVS-02,2018-040B,2026-05-16T12:49:46.112736,15.24573877,.00044505,97.0404,155.6493,41.0175,319.1398,0,U,43440,999,44789,.22822275E-3,.5558E-4,0
ZHUHAI-1 OHS-02,2018-040C,2026-05-16T14:27:43.297344,15.25390683,.00087811,97.0389,162.6215,356.4927,3.6249,0,U,43441,999,10946,.25669425E-3,.6421E-4,0
GAOFEN-6,2018-048A,2026-05-16T15:05:05.034336,14.76592919,.00105153,97.7780,200.4658,279.0338,80.9682,0,U,43484,999,42873,.11382864E-3,.746E-5,0
LUOJIA-1 01,2018-048B,2026-05-16T14:52:01.824384,14.87153464,.00080479,97.8107,215.3162,218.0981,141.9667,0,U,43485,999,42952,.86332389E-4,.722E-5,0
PAKTES 1A,2018-056A,2026-05-16T15:09:06.383232,14.98912478,.00215184,98.1217,291.7824,212.2439,147.7468,0,U,43529,999,42719,.14152566E-3,.1653E-4,0
PRSS-1,2018-056B,2026-05-16T14:10:41.689920,14.81933223,.00018371,97.7837,205.3341,92.2277,267.9147,0,U,43530,999,42375,.15264185E-4,.7E-6,0
HAIYANG-1C,2018-068A,2026-05-16T15:22:38.816256,14.34168936,.00107916,98.5204,209.4027,181.6657,178.4494,0,U,43609,999,40256,.96201114E-4,.226E-5,0
SSTL S1-4,2018-071A,2026-05-16T14:07:29.856000,14.96171357,.00011667,97.5072,9.5106,73.9338,286.2013,0,U,43618,999,41821,.68399729E-4,.716E-5,0
HAIYANG-2B,2018-081A,2026-05-16T14:36:28.211904,13.79306833,.00016143,99.3291,145.8406,47.9646,312.1643,0,U,43655,999,38057,.2274042E-3,.189E-5,0
CFOSAT,2018-083A,2026-05-16T14:49:31.741536,15.16493232,.00016914,97.3608,142.0781,62.6942,297.4463,0,U,43662,999,41765,.13448395E-3,.2554E-4,0
DIWATA-2B,2018-084H,2026-05-16T11:47:40.083360,15.00286766,.00118154,98.1106,331.3398,280.4466,79.5425,0,U,43678,999,41146,.16103342E-3,.1954E-4,0
STARS-AO,2018-084J,2026-05-16T14:34:29.053344,15.16676933,.00006214,98.0531,348.6366,276.7955,83.3205,0,U,43679,999,41268,.25727565E-3,.4962E-4,0
AUTCUBE 2,2018-084K,2026-05-16T14:53:47.336928,15.09858112,.00099196,98.0732,341.1236,142.6023,217.5896,0,U,43681,999,41216,.15502881E-3,.244E-4,0
METOP-C,2018-087A,2026-05-16T14:30:52.709472,14.21502856,.00003766,98.6660,196.7824,139.0873,221.0332,0,U,43689,999,39034,.50307128E-4,.67E-6,0
ES'HAIL 2,2018-090A,2026-05-16T14:32:02.645952,1.00268355,.00011752,0.0163,299.6112,139.8736,38.6692,0,U,43700,999,2736,0,.154E-5,0
MOHAMMED VI-B,2018-095A,2026-05-16T14:37:24.962016,14.77071699,.00012808,97.9570,209.3673,80.8872,279.2483,0,U,43717,999,40352,.25045019E-4,.126E-5,0
HYSIS,2018-096A,2026-05-16T14:37:45.697152,14.78622647,.00009296,97.9858,203.6020,110.5249,249.6061,0,U,43719,999,40275,.86651474E-4,.583E-5,0
