ASNARO-2                
1 43152U 18007A   26136.43969822  .00007620  00000+0  33246-3 0  9997
2 43152  97.3980 143.8607 0001750  93.2933 266.8503 15.22430625462589
JILIN-1 07              
1 43159U 18008E   26136.46461176  .00006806  00000+0  20793-3 0  9995
2 43159  97.1786 157.2500 0009015 159.5502 200.6105 15.34163190460135
JILIN-1 08              
1 43160U 18008F   26136.51074551  .00006693  00000+0  21039-3 0  9998
2 43160  97.1815 156.6419 0006379 169.1486 190.9896 15.33278319460092
LEMUR-2-KADI            
1 43184U 18014E   26136.53194096  .00372149  00000+0  14004-2 0  9995
2 43184  97.4491  66.0530 0005179 107.4451 252.7387 15.86872684456059
S-NET D                 
1 43186U 18014G   26136.26223393  .00003623  00000+0  19007-3 0  9997
2 43186  97.5392  41.2564 0009766 122.5928 237.6249 15.16350213453921
S-NET B                 
1 43187U 18014H   26136.53702960  .00003696  00000+0  19397-3 0  9992
2 43187  97.5396  41.5150 0010518 118.0548 242.1749 15.16321748453966
S-NET C                 
1 43189U 18014K   26136.47474534  .00003740  00000+0  19622-3 0  9991
2 43189  97.5423  41.7259 0011874 113.1542 247.0943 15.16312346452500
PAZ                     
1 43215U 18020A   26136.62195787  .00001151  00000+0  57963-4 0  9990
2 43215  97.4457 144.4562 0001723  87.6311 272.5121 15.19158357456211
GOES 17                 
1 43226U 18022A   26136.58273733 -.00000172  00000+0  00000+0 0  9995
2 43226   0.8578  86.1298 0000448 322.2958 306.1715  1.00270617 30109
LKW-4                   
1 43236U 18025A   26136.41099552  .00037439  00000+0  46828-3 0  9993
2 43236  97.6324 304.8646 0003010  75.0722 285.0867 15.59727518455076
ZHUHAI-1 OVS-02         
1 43440U 18040B   26136.53456149  .00005558  00000+0  22822-3 0  9994
2 43440  97.0404 155.6493 0004450  41.0175 319.1398 15.24573877447890
ZHUHAI-1 OHS-02         
1 43441U 18040C   26136.60258446  .00006421  00000+0  25669-3 0  9995
2 43441  97.0389 162.6215 0008781 356.4927   3.6249 15.25390683109463
GAOFEN-6                
1 43484U 18048A   26136.62853049  .00000746  00000+0  11383-3 0  9994
2 43484  97.7780 200.4658 0010515 279.0338  80.9682 14.76592919428732
LUOJIA-1 01             
1 43485U 18048B   26136.61946556  .00000722  00000+0  86332-4 0  9991
2 43485  97.8107 215.3162 0008047 218.0981 141.9667 14.87153464429525
PAKTES 1A               
1 43529U 18056A   26136.63132388  .00001653  00000+0  14153-3 0  9996
2 43529  98.1217 291.7824 0021518 212.2439 147.7468 14.98912478427199
PRSS-1                  
1 43530U 18056B   26136.59076030  .00000070  00000+0  15264-4 0  9991
2 43530  97.7837 205.3341 0001837  92.2277 267.9147 14.81933223423757
HAIYANG-1C              
1 43609U 18068A   26136.64072704  .00000226  00000+0  96201-4 0  9994
2 43609  98.5204 209.4027 0010791 181.6657 178.4494 14.34168936402567
SSTL S1-4               
1 43618U 18071A   26136.58854000  .00000716  00000+0  68400-4 0  9992
2 43618  97.5072   9.5106 0001166  73.9338 286.2013 14.96171357418214
HAIYANG-2B              
1 43655U 18081A   26136.60865986  .00000189  00000+0  22740-3 0  9992
2 43655  99.3291 145.8406 0001614  47.9646 312.1643 13.79306833380570
CFOSAT                  
1 43662U 18083A   26136.61772849  .00002554  00000+0  13448-3 0  9991
2 43662  97.3608 142.0781 0001691  62.6942 297.4463 15.16493232417659
DIWATA-2B               
1 43678U 18084H   26136.49143615  .00001954  00000+0  16103-3 0  9992
2 43678  98.1106 331.3398 0011815 280.4466  79.5425 15.00286766411460
STARS-AO                
1 43679U 18084J   26136.60728071  .00004962  00000+0  25728-3 0  9996
2 43679  98.0531 348.6366 0000621 276.7955  83.3205 15.16676933412682
AUTCUBE 2               
1 43681U 18084K   26136.62068677  .00002440  00000+0  15503-3 0  9999
2 43681  98.0732 341.1236 0009919 142.6023 217.5896 15.09858112412161
METOP-C                 
1 43689U 18087A   26136.60477673  .00000067  00000+0  50307-4 0  9993
2 43689  98.6660 196.7824 0000376 139.0873 221.0332 14.21502856390347
ES'HAIL 2               
1 43700U 18090A   26136.60558618  .00000154  00000+0  00000+0 0  9997
2 43700   0.0163 299.6112 0001175 139.8736  38.6692  1.00268355 27369
MOHAMMED VI-B           
1 43717U 18095A   26136.60931669  .00000126  00000+0  25045-4 0  9991
2 43717  97.9570 209.3673 0001280  80.8872 279.2483 14.77071699403525
HYSIS                   
1 43719U 18096A   26136.60955668  .00000583  00000+0  86651-4 0  9996
2 43719  97.9858 203.6020 0000929 110.5249 249.6061 14.78622647402750
